{"type": "FeatureCollection", "features": [ {"type": "Feature", "properties": {"norad_id": 66486, "name": "STARLINK-34844", "group": "last-30-days", "lat": 37.36410606148454, "lon": -49.81066640618571, "alt_km": 339.83022302735117, "timestamp": "2025-12-02T13:52:16.065159+00:00", "meta": {"OBJECT_NAME": "STARLINK-34844", "OBJECT_ID": "2025-263B", "EPOCH": "2025-12-02T06:00:02.999808", "MEAN_MOTION": 15.75105156, "ECCENTRICITY": 0.00018403, "INCLINATION": 42.9989, "RA_OF_ASC_NODE": 187.2095, "ARG_OF_PERICENTER": 265.2841, "MEAN_ANOMALY": 150.1114, "EPHEMERIS_TYPE": 0, "CLASSIFICATION_TYPE": "U", "NORAD_CAT_ID": 66486, "ELEMENT_SET_NO": 999, "REV_AT_EPOCH": 390, "BSTAR": -0.0013433589, "MEAN_MOTION_DOT": -0.00202554, "MEAN_MOTION_DDOT": 0}, "tle": {"line1": "1 66486U 25263B   25336.25003472 -.00202554  00000+0 -13434-2 0  9996", "line2": "2 66486  42.9989 187.2095 0001840 265.2841 150.1114 15.75105156  3907"}}, "geometry": {"type": "Point", "coordinates": [-49.81066640618571, 37.36410606148454]}}, {"type": "Feature", "properties": {"norad_id": 66487, "name": "STARLINK-34733", "group": "last-30-days", "lat": 36.5925254888784, "lon": -47.611025604454156, "alt_km": 339.96298838307575, "timestamp": "2025-12-02T13:52:16.065170+00:00", "meta": {"OBJECT_NAME": "STARLINK-34733", "OBJECT_ID": "2025-263C", "EPOCH": "2025-12-02T06:00:02.999808", "MEAN_MOTION": 15.75133516, "ECCENTRICITY": 0.00016485, "INCLINATION": 42.999, "RA_OF_ASC_NODE": 187.205, "ARG_OF_PERICENTER": 278.9818, "MEAN_ANOMALY": 138.3175, "EPHEMERIS_TYPE": 0, "CLASSIFICATION_TYPE": "U", "NORAD_CAT_ID": 66487, "ELEMENT_SET_NO": 999, "REV_AT_EPOCH": 395, "BSTAR": -0.0017139564, "MEAN_MOTION_DOT": -0.00256972, "MEAN_MOTION_DDOT": 0}, "tle": {"line1": "1 66487U 25263C   25336.25003472 -.00256972  00000+0 -17140-2 0  9998", "line2": "2 66487  42.9990 187.2050 0001648 278.9818 138.3175 15.75133516  3953"}}, "geometry": {"type": "Point", "coordinates": [-47.611025604454156, 36.5925254888784]}}, {"type": "Feature", "properties": {"norad_id": 66488, "name": "STARLINK-35515", "group": "last-30-days", "lat": 35.78286313601206, "lon": -45.46064092305559, "alt_km": 340.0778880222242, "timestamp": "2025-12-02T13:52:16.065179+00:00", "meta": {"OBJECT_NAME": "STARLINK-35515", "OBJECT_ID": "2025-263D", "EPOCH": "2025-12-02T06:00:02.999808", "MEAN_MOTION": 15.75133515, "ECCENTRICITY": 0.00016323, "INCLINATION": 42.9991, "RA_OF_ASC_NODE": 187.2003, "ARG_OF_PERICENTER": 278.9895, "MEAN_ANOMALY": 140.228, "EPHEMERIS_TYPE": 0, "CLASSIFICATION_TYPE": "U", "NORAD_CAT_ID": 66488, "ELEMENT_SET_NO": 999, "REV_AT_EPOCH": 395, "BSTAR": -0.0017403075, "MEAN_MOTION_DOT": -0.00260798, "MEAN_MOTION_DDOT": 0}, "tle": {"line1": "1 66488U 25263D   25336.25003472 -.00260798  00000+0 -17403-2 0  9992", "line2": "2 66488  42.9991 187.2003 0001632 278.9895 140.2280 15.75133515  3959"}}, "geometry": {"type": "Point", "coordinates": [-45.46064092305559, 35.78286313601206]}}, {"type": "Feature", "properties": {"norad_id": 66489, "name": "STARLINK-35696", "group": "last-30-days", "lat": 34.936714177854476, "lon": -43.35872399294352, "alt_km": 340.0215392839773, "timestamp": "2025-12-02T13:52:16.065192+00:00", "meta": {"OBJECT_NAME": "STARLINK-35696", "OBJECT_ID": "2025-263E", "EPOCH": "2025-12-02T06:00:02.999808", "MEAN_MOTION": 15.75124079, "ECCENTRICITY": 0.00017279, "INCLINATION": 42.999, "RA_OF_ASC_NODE": 187.1949, "ARG_OF_PERICENTER": 260.539, "MEAN_ANOMALY": 160.5955, "EPHEMERIS_TYPE": 0, "CLASSIFICATION_TYPE": "U", "NORAD_CAT_ID": 66489, "ELEMENT_SET_NO": 999, "REV_AT_EPOCH": 395, "BSTAR": -0.0015067463, "MEAN_MOTION_DOT": -0.00226674, "MEAN_MOTION_DDOT": 0}, "tle": {"line1": "1 66489U 25263E   25336.25003472 -.00226674  00000+0 -15067-2 0  9992", "line2": "2 66489  42.9990 187.1949 0001727 260.5390 160.5955 15.75124079  3958"}}, "geometry": {"type": "Point", "coordinates": [-43.35872399294352, 34.936714177854476]}}, {"type": "Feature", "properties": {"norad_id": 66490, "name": "STARLINK-35693", "group": "last-30-days", "lat": 34.05249811156504, "lon": -41.29384680806691, "alt_km": 340.3232220277505, "timestamp": "2025-12-02T13:52:16.065202+00:00", "meta": {"OBJECT_NAME": "STARLINK-35693", "OBJECT_ID": "2025-263F", "EPOCH": "2025-12-02T06:00:02.999808", "MEAN_MOTION": 15.75139521, "ECCENTRICITY": 0.00016304, "INCLINATION": 42.9992, "RA_OF_ASC_NODE": 187.1902, "ARG_OF_PERICENTER": 278.9335, "MEAN_ANOMALY": 144.1129, "EPHEMERIS_TYPE": 0, "CLASSIFICATION_TYPE": "U", "NORAD_CAT_ID": 66490, "ELEMENT_SET_NO": 999, "REV_AT_EPOCH": 395, "BSTAR": -0.0017862665, "MEAN_MOTION_DOT": -0.00267532, "MEAN_MOTION_DDOT": 0}, "tle": {"line1": "1 66490U 25263F   25336.25003472 -.00267532  00000+0 -17863-2 0  9998", "line2": "2 66490  42.9992 187.1902 0001630 278.9335 144.1129 15.75139521  3955"}}, "geometry": {"type": "Point", "coordinates": [-41.29384680806691, 34.05249811156504]}}, {"type": "Feature", "properties": {"norad_id": 66491, "name": "STARLINK-35663", "group": "last-30-days", "lat": 32.18756888365739, "lon": -37.302274165204594, "alt_km": 340.672455849598, "timestamp": "2025-12-02T13:52:16.065212+00:00", "meta": {"OBJECT_NAME": "STARLINK-35663", "OBJECT_ID": "2025-263G", "EPOCH": "2025-12-02T06:00:02.999808", "MEAN_MOTION": 15.75128288, "ECCENTRICITY": 0.00020095, "INCLINATION": 42.9991, "RA_OF_ASC_NODE": 187.1805, "ARG_OF_PERICENTER": 272.7874, "MEAN_ANOMALY": 154.0867, "EPHEMERIS_TYPE": 0, "CLASSIFICATION_TYPE": "U", "NORAD_CAT_ID": 66491, "ELEMENT_SET_NO": 999, "REV_AT_EPOCH": 395, "BSTAR": -0.0014332969, "MEAN_MOTION_DOT": -0.0021597, "MEAN_MOTION_DDOT": 0}, "tle": {"line1": "1 66491U 25263G   25336.25003472 -.00215970  00000+0 -14333-2 0  9997", "line2": "2 66491  42.9991 187.1805 0002009 272.7874 154.0867 15.75128288  3955"}}, "geometry": {"type": "Point", "coordinates": [-37.302274165204594, 32.18756888365739]}}, {"type": "Feature", "properties": {"norad_id": 66492, "name": "STARLINK-35673", "group": "last-30-days", "lat": 31.206546237769878, "lon": -35.36515379354896, "alt_km": 340.7453281285316, "timestamp": "2025-12-02T13:52:16.065222+00:00", "meta": {"OBJECT_NAME": "STARLINK-35673", "OBJECT_ID": "2025-263H", "EPOCH": "2025-12-02T06:00:02.999808", "MEAN_MOTION": 15.75142667, "ECCENTRICITY": 0.00017721, "INCLINATION": 42.9988, "RA_OF_ASC_NODE": 187.1755, "ARG_OF_PERICENTER": 273.4346, "MEAN_ANOMALY": 155.3618, "EPHEMERIS_TYPE": 0, "CLASSIFICATION_TYPE": "U", "NORAD_CAT_ID": 66492, "ELEMENT_SET_NO": 999, "REV_AT_EPOCH": 395, "BSTAR": -0.001785186, "MEAN_MOTION_DOT": -0.00267419, "MEAN_MOTION_DDOT": 0}, "tle": {"line1": "1 66492U 25263H   25336.25003472 -.00267419  00000+0 -17852-2 0  9992", "line2": "2 66492  42.9988 187.1755 0001772 273.4346 155.3618 15.75142667  3959"}}, "geometry": {"type": "Point", "coordinates": [-35.36515379354896, 31.206546237769878]}}, {"type": "Feature", "properties": {"norad_id": 66493, "name": "STARLINK-35597", "group": "last-30-days", "lat": 30.194674598241313, "lon": -33.46327503910642, "alt_km": 341.0707151378356, "timestamp": "2025-12-02T13:52:16.065234+00:00", "meta": {"OBJECT_NAME": "STARLINK-35597", "OBJECT_ID": "2025-263J", "EPOCH": "2025-12-02T06:00:02.999808", "MEAN_MOTION": 15.7507508, "ECCENTRICITY": 0.00018772, "INCLINATION": 42.9991, "RA_OF_ASC_NODE": 187.1704, "ARG_OF_PERICENTER": 283.1201, "MEAN_ANOMALY": 147.6424, "EPHEMERIS_TYPE": 0, "CLASSIFICATION_TYPE": "U", "NORAD_CAT_ID": 66493, "ELEMENT_SET_NO": 999, "REV_AT_EPOCH": 395, "BSTAR": -0.0011760166, "MEAN_MOTION_DOT": -0.00177666, "MEAN_MOTION_DDOT": 0}, "tle": {"line1": "1 66493U 25263J   25336.25003472 -.00177666  00000+0 -11760-2 0  9999", "line2": "2 66493  42.9991 187.1704 0001877 283.1201 147.6424 15.75075080  3955"}}, "geometry": {"type": "Point", "coordinates": [-33.46327503910642, 30.194674598241313]}}, {"type": "Feature", "properties": {"norad_id": 66494, "name": "STARLINK-35689", "group": "last-30-days", "lat": 33.13670633204237, "lon": -39.27822390831812, "alt_km": 340.4120878688673, "timestamp": "2025-12-02T13:52:16.065244+00:00", "meta": {"OBJECT_NAME": "STARLINK-35689", "OBJECT_ID": "2025-263K", "EPOCH": "2025-12-02T06:00:02.999808", "MEAN_MOTION": 15.75137098, "ECCENTRICITY": 0.00017784, "INCLINATION": 42.9991, "RA_OF_ASC_NODE": 187.1855, "ARG_OF_PERICENTER": 268.1459, "MEAN_ANOMALY": 156.8173, "EPHEMERIS_TYPE": 0, "CLASSIFICATION_TYPE": "U", "NORAD_CAT_ID": 66494, "ELEMENT_SET_NO": 999, "REV_AT_EPOCH": 395, "BSTAR": -0.0017135418, "MEAN_MOTION_DOT": -0.00256957, "MEAN_MOTION_DDOT": 0}, "tle": {"line1": "1 66494U 25263K   25336.25003472 -.00256957  00000+0 -17135-2 0  9993", "line2": "2 66494  42.9991 187.1855 0001778 268.1459 156.8173 15.75137098  3952"}}, "geometry": {"type": "Point", "coordinates": [-39.27822390831812, 33.13670633204237]}}, {"type": "Feature", "properties": {"norad_id": 66495, "name": "STARLINK-35832", "group": "last-30-days", "lat": 29.167487323862066, "lon": -31.62193141510332, "alt_km": 340.72308832288854, "timestamp": "2025-12-02T13:52:16.065254+00:00", "meta": {"OBJECT_NAME": "STARLINK-35832", "OBJECT_ID": "2025-263L", "EPOCH": "2025-12-02T06:00:02.999808", "MEAN_MOTION": 15.75144308, "ECCENTRICITY": 0.00015707, "INCLINATION": 42.9988, "RA_OF_ASC_NODE": 187.1658, "ARG_OF_PERICENTER": 258.8694, "MEAN_ANOMALY": 173.7563, "EPHEMERIS_TYPE": 0, "CLASSIFICATION_TYPE": "U", "NORAD_CAT_ID": 66495, "ELEMENT_SET_NO": 999, "REV_AT_EPOCH": 395, "BSTAR": -0.0018075747, "MEAN_MOTION_DOT": -0.00270672, "MEAN_MOTION_DDOT": 0}, "tle": {"line1": "1 66495U 25263L   25336.25003472 -.00270672  00000+0 -18076-2 0  9999", "line2": "2 66495  42.9988 187.1658 0001570 258.8694 173.7563 15.75144308  3950"}}, "geometry": {"type": "Point", "coordinates": [-31.62193141510332, 29.167487323862066]}}]}